CCSDS_OMM_VERS = 2.0
CREATION_DATE  = 
ORIGINATOR     = 

OBJECT_NAME    = STARLINK-36699
OBJECT_ID      = 2026-022E
CENTER_NAME    = EARTH
REF_FRAME      = TEME
TIME_SYSTEM    = UTC
MEAN_ELEMENT_THEORY = SGP/SGP4

EPOCH          = 2026-02-15T14:00:01.999872
MEAN_MOTION    = 15.75881536
ECCENTRICITY   = .00013832
INCLINATION    = 97.2833
RA_OF_ASC_NODE = 79.4669
ARG_OF_PERICENTER = 87.9573
MEAN_ANOMALY   = 96.0545

EPHEMERIS_TYPE = 0
CLASSIFICATION_TYPE = U
NORAD_CAT_ID   = 67652
ELEMENT_SET_NO = 999
REV_AT_EPOCH   = 334
BSTAR          = -.67857202E-2
MEAN_MOTION_DOT = -.935641E-2
MEAN_MOTION_DDOT = 0

CCSDS_OMM_VERS = 2.0
CREATION_DATE  = 
ORIGINATOR     = 

OBJECT_NAME    = STARLINK-36694
OBJECT_ID      = 2026-022F
CENTER_NAME    = EARTH
REF_FRAME      = TEME
TIME_SYSTEM    = UTC
MEAN_ELEMENT_THEORY = SGP/SGP4

EPOCH          = 2026-02-15T14:00:01.999872
MEAN_MOTION    = 15.77343646
ECCENTRICITY   = .00018748
INCLINATION    = 97.2836
RA_OF_ASC_NODE = 79.4732
ARG_OF_PERICENTER = 104.2901
MEAN_ANOMALY   = 90.1294

EPHEMERIS_TYPE = 0
CLASSIFICATION_TYPE = U
NORAD_CAT_ID   = 67653
ELEMENT_SET_NO = 999
REV_AT_EPOCH   = 334
BSTAR          = -.12939247E-1
MEAN_MOTION_DOT = -.1856531E-1
MEAN_MOTION_DDOT = 0

CCSDS_OMM_VERS = 2.0
CREATION_DATE  = 
ORIGINATOR     = 

OBJECT_NAME    = STARLINK-36620
OBJECT_ID      = 2026-022G
CENTER_NAME    = EARTH
REF_FRAME      = TEME
TIME_SYSTEM    = UTC
MEAN_ELEMENT_THEORY = SGP/SGP4

EPOCH          = 2026-02-15T14:00:01.999872
MEAN_MOTION    = 15.76429738
ECCENTRICITY   = .00013868
INCLINATION    = 97.2828
RA_OF_ASC_NODE = 79.4724
ARG_OF_PERICENTER = 80.7698
MEAN_ANOMALY   = 116.8485

EPHEMERIS_TYPE = 0
CLASSIFICATION_TYPE = U
NORAD_CAT_ID   = 67654
ELEMENT_SET_NO = 999
REV_AT_EPOCH   = 334
BSTAR          = -.11162869E-1
MEAN_MOTION_DOT = -.1542419E-1
MEAN_MOTION_DDOT = 0

CCSDS_OMM_VERS = 2.0
CREATION_DATE  = 
ORIGINATOR     = 

OBJECT_NAME    = STARLINK-36720
OBJECT_ID      = 2026-022H
CENTER_NAME    = EARTH
REF_FRAME      = TEME
TIME_SYSTEM    = UTC
MEAN_ELEMENT_THEORY = SGP/SGP4

EPOCH          = 2026-02-15T14:00:01.999872
MEAN_MOTION    = 15.77219357
ECCENTRICITY   = .00018987
INCLINATION    = 97.2840
RA_OF_ASC_NODE = 79.4778
ARG_OF_PERICENTER = 96.9337
MEAN_ANOMALY   = 109.6811

EPHEMERIS_TYPE = 0
CLASSIFICATION_TYPE = U
NORAD_CAT_ID   = 67655
ELEMENT_SET_NO = 999
REV_AT_EPOCH   = 334
BSTAR          = -.12931668E-1
MEAN_MOTION_DOT = -.184662E-1
MEAN_MOTION_DDOT = 0

CCSDS_OMM_VERS = 2.0
CREATION_DATE  = 
ORIGINATOR     = 

OBJECT_NAME    = STARLINK-36688
OBJECT_ID      = 2026-022J
CENTER_NAME    = EARTH
REF_FRAME      = TEME
TIME_SYSTEM    = UTC
MEAN_ELEMENT_THEORY = SGP/SGP4

EPOCH          = 2026-02-15T14:00:01.999872
MEAN_MOTION    = 15.77018719
ECCENTRICITY   = .00019577
INCLINATION    = 97.2838
RA_OF_ASC_NODE = 79.4784
ARG_OF_PERICENTER = 91.7041
MEAN_ANOMALY   = 119.2366

EPHEMERIS_TYPE = 0
CLASSIFICATION_TYPE = U
NORAD_CAT_ID   = 67656
ELEMENT_SET_NO = 999
REV_AT_EPOCH   = 334
BSTAR          = -.13067138E-1
MEAN_MOTION_DOT = -.1849044E-1
MEAN_MOTION_DDOT = 0

CCSDS_OMM_VERS = 2.0
CREATION_DATE  = 
ORIGINATOR     = 

OBJECT_NAME    = STARLINK-36706
OBJECT_ID      = 2026-022K
CENTER_NAME    = EARTH
REF_FRAME      = TEME
TIME_SYSTEM    = UTC
MEAN_ELEMENT_THEORY = SGP/SGP4

EPOCH          = 2026-02-15T14:00:01.999872
MEAN_MOTION    = 15.77487769
ECCENTRICITY   = .00017229
INCLINATION    = 97.2822
RA_OF_ASC_NODE = 79.4812
ARG_OF_PERICENTER = 90.3748
MEAN_ANOMALY   = 127.7311

EPHEMERIS_TYPE = 0
CLASSIFICATION_TYPE = U
NORAD_CAT_ID   = 67657
ELEMENT_SET_NO = 999
REV_AT_EPOCH   = 331
BSTAR          = -.12868597E-1
MEAN_MOTION_DOT = -.1857971E-1
MEAN_MOTION_DDOT = 0

CCSDS_OMM_VERS = 2.0
CREATION_DATE  = 
ORIGINATOR     = 

OBJECT_NAME    = STARLINK-36701
OBJECT_ID      = 2026-022L
CENTER_NAME    = EARTH
REF_FRAME      = TEME
TIME_SYSTEM    = UTC
MEAN_ELEMENT_THEORY = SGP/SGP4

EPOCH          = 2026-02-15T14:00:01.999872
MEAN_MOTION    = 15.77409607
ECCENTRICITY   = .00017757
INCLINATION    = 97.2827
RA_OF_ASC_NODE = 79.4842
ARG_OF_PERICENTER = 96.6875
MEAN_ANOMALY   = 127.5781

EPHEMERIS_TYPE = 0
CLASSIFICATION_TYPE = U
NORAD_CAT_ID   = 67658
ELEMENT_SET_NO = 999
REV_AT_EPOCH   = 334
BSTAR          = -.12992403E-1
MEAN_MOTION_DOT = -.1867896E-1
MEAN_MOTION_DDOT = 0

CCSDS_OMM_VERS = 2.0
CREATION_DATE  = 
ORIGINATOR     = 

OBJECT_NAME    = STARLINK-36642
OBJECT_ID      = 2026-022M
CENTER_NAME    = EARTH
REF_FRAME      = TEME
TIME_SYSTEM    = UTC
MEAN_ELEMENT_THEORY = SGP/SGP4

EPOCH          = 2026-02-15T14:00:01.999872
MEAN_MOTION    = 15.77701901
ECCENTRICITY   = .00015442
INCLINATION    = 97.2814
RA_OF_ASC_NODE = 79.4862
ARG_OF_PERICENTER = 104.3949
MEAN_ANOMALY   = 125.2984

EPHEMERIS_TYPE = 0
CLASSIFICATION_TYPE = U
NORAD_CAT_ID   = 67659
ELEMENT_SET_NO = 999
REV_AT_EPOCH   = 334
BSTAR          = -.13021635E-1
MEAN_MOTION_DOT = -.1892819E-1
MEAN_MOTION_DDOT = 0

CCSDS_OMM_VERS = 2.0
CREATION_DATE  = 
ORIGINATOR     = 

OBJECT_NAME    = STARLINK-36673
OBJECT_ID      = 2026-022N
CENTER_NAME    = EARTH
REF_FRAME      = TEME
TIME_SYSTEM    = UTC
MEAN_ELEMENT_THEORY = SGP/SGP4

EPOCH          = 2026-02-15T14:00:01.999872
MEAN_MOTION    = 15.78039820
ECCENTRICITY   = .00016883
INCLINATION    = 97.2818
RA_OF_ASC_NODE = 79.4888
ARG_OF_PERICENTER = 104.6527
MEAN_ANOMALY   = 132.2861

EPHEMERIS_TYPE = 0
CLASSIFICATION_TYPE = U
NORAD_CAT_ID   = 67660
ELEMENT_SET_NO = 999
REV_AT_EPOCH   = 334
BSTAR          = -.12943821E-1
MEAN_MOTION_DOT = -.1908167E-1
MEAN_MOTION_DDOT = 0

CCSDS_OMM_VERS = 2.0
CREATION_DATE  = 
ORIGINATOR     = 

OBJECT_NAME    = STARLINK-36674
OBJECT_ID      = 2026-022P
CENTER_NAME    = EARTH
REF_FRAME      = TEME
TIME_SYSTEM    = UTC
MEAN_ELEMENT_THEORY = SGP/SGP4

EPOCH          = 2026-02-15T14:00:01.999872
MEAN_MOTION    = 15.78708935
ECCENTRICITY   = .00017122
INCLINATION    = 97.2830
RA_OF_ASC_NODE = 79.4914
ARG_OF_PERICENTER = 107.6149
MEAN_ANOMALY   = 135.4872

EPHEMERIS_TYPE = 0
CLASSIFICATION_TYPE = U
NORAD_CAT_ID   = 67661
ELEMENT_SET_NO = 999
REV_AT_EPOCH   = 334
BSTAR          = -.12486464E-1
MEAN_MOTION_DOT = -.1898702E-1
MEAN_MOTION_DDOT = 0

CCSDS_OMM_VERS = 2.0
CREATION_DATE  = 
ORIGINATOR     = 

OBJECT_NAME    = STARLINK-36700
OBJECT_ID      = 2026-022Q
CENTER_NAME    = EARTH
REF_FRAME      = TEME
TIME_SYSTEM    = UTC
MEAN_ELEMENT_THEORY = SGP/SGP4

EPOCH          = 2026-02-15T14:00:01.999872
MEAN_MOTION    = 15.78650401
ECCENTRICITY   = .0001521
INCLINATION    = 97.2809
RA_OF_ASC_NODE = 79.4960
ARG_OF_PERICENTER = 115.0825
MEAN_ANOMALY   = 140.1998

EPHEMERIS_TYPE = 0
CLASSIFICATION_TYPE = U
NORAD_CAT_ID   = 67662
ELEMENT_SET_NO = 999
REV_AT_EPOCH   = 334
BSTAR          = -.1254539E-1
MEAN_MOTION_DOT = -.1901912E-1
MEAN_MOTION_DDOT = 0

CCSDS_OMM_VERS = 2.0
CREATION_DATE  = 
ORIGINATOR     = 

OBJECT_NAME    = STARLINK-36675
OBJECT_ID      = 2026-022R
CENTER_NAME    = EARTH
REF_FRAME      = TEME
TIME_SYSTEM    = UTC
MEAN_ELEMENT_THEORY = SGP/SGP4

EPOCH          = 2026-02-15T14:00:01.999872
MEAN_MOTION    = 15.78257538
ECCENTRICITY   = .00017736
INCLINATION    = 97.2814
RA_OF_ASC_NODE = 79.4939
ARG_OF_PERICENTER = 100.7581
MEAN_ANOMALY   = 147.6212

EPHEMERIS_TYPE = 0
CLASSIFICATION_TYPE = U
NORAD_CAT_ID   = 67663
ELEMENT_SET_NO = 999
REV_AT_EPOCH   = 334
BSTAR          = -.12769511E-1
MEAN_MOTION_DOT = -.1902057E-1
MEAN_MOTION_DDOT = 0

