STARLINK-36699          
1 67652U 26022E   26046.58335648 -.00935641  00000+0 -67857-2 0  9992
2 67652  97.2833  79.4669 0001383  87.9573  96.0545 15.75881536  3343
STARLINK-36694          
1 67653U 26022F   26046.58335648 -.01856531  00000+0 -12939-1 0  9994
2 67653  97.2836  79.4732 0001874 104.2901  90.1294 15.77343646  3344
STARLINK-36620          
1 67654U 26022G   26046.58335648 -.01542419  00000+0 -11163-1 0  9990
2 67654  97.2828  79.4724 0001386  80.7698 116.8485 15.76429738  3340
STARLINK-36720          
1 67655U 26022H   26046.58335648 -.01846620  00000+0 -12932-1 0  9997
2 67655  97.2840  79.4778 0001898  96.9337 109.6811 15.77219357  3349
STARLINK-36688          
1 67656U 26022J   26046.58335648 -.01849044  00000+0 -13067-1 0  9991
2 67656  97.2838  79.4784 0001957  91.7041 119.2366 15.77018719  3346
STARLINK-36706          
1 67657U 26022K   26046.58335648 -.01857971  00000+0 -12869-1 0  9999
2 67657  97.2822  79.4812 0001722  90.3748 127.7311 15.77487769  3317
STARLINK-36701          
1 67658U 26022L   26046.58335648 -.01867896  00000+0 -12992-1 0  9994
2 67658  97.2827  79.4842 0001775  96.6875 127.5781 15.77409607  3341
STARLINK-36642          
1 67659U 26022M   26046.58335648 -.01892819  00000+0 -13022-1 0  9993
2 67659  97.2814  79.4862 0001544 104.3949 125.2984 15.77701901  3345
STARLINK-36673          
1 67660U 26022N   26046.58335648 -.01908167  00000+0 -12944-1 0  9991
2 67660  97.2818  79.4888 0001688 104.6527 132.2861 15.78039820  3340
STARLINK-36674          
1 67661U 26022P   26046.58335648 -.01898702  00000+0 -12486-1 0  9996
2 67661  97.2830  79.4914 0001712 107.6149 135.4872 15.78708935  3343
STARLINK-36700          
1 67662U 26022Q   26046.58335648 -.01901912  00000+0 -12545-1 0  9991
2 67662  97.2809  79.4960 0001521 115.0825 140.1998 15.78650401  3349
STARLINK-36675          
1 67663U 26022R   26046.58335648 -.01902057  00000+0 -12770-1 0  9993
2 67663  97.2814  79.4939 0001773 100.7581 147.6212 15.78257538  3346
